H1 CPF 01  gfz 2022 12 16 01  8501 terrasarx 
H2 0702601  6201 31698    2022 12 16 00 59 42 2022 12 21 00 00 42   120 1 1  0 0 0
H9
10 0 59929  20142.000000  0   -5926792.094   -211086.725   3495750.689
10 0 59929  20262.000000  0   -5421880.737     -8582.584   4239903.887
10 0 59929  20382.000000  0   -4818737.601    184375.573   4909417.728
10 0 59929  20502.000000  0   -4128145.391    362791.257   5492537.203
10 0 59929  20622.000000  0   -3362493.629    522127.636   5979038.664
10 0 59929  20742.000000  0   -2535547.404    658412.284   6360405.053
10 0 59929  20862.000000  0   -1662193.262    768327.009   6629969.456
10 0 59929  20982.000000  0    -758166.136    849282.167   6783025.725
10 0 59929  21102.000000  0     160235.716    899473.005   6816904.278
10 0 59929  21222.000000  0    1076443.767    917917.373   6731015.225
10 0 59929  21342.000000  0    1973916.804    904474.868   6526858.108
10 0 59929  21462.000000  0    2836438.467    859846.511   6207997.567
10 0 59929  21582.000000  0    3648410.943    785554.940   5780005.815
10 0 59929  21702.000000  0    4395139.866    683905.731   5250370.180
10 0 59929  21822.000000  0    5063104.267    557930.009   4628368.548
10 0 59929  21942.000000  0    5640209.389    411309.088   3924913.564
10 0 59929  22062.000000  0    6116016.009    248284.172   3152364.376
10 0 59929  22182.000000  0    6481939.369     73552.276   2324309.297
10 0 59929  22302.000000  0    6731412.856   -107851.114   1455325.113
10 0 59929  22422.000000  0    6860014.765   -290677.924    560715.908
10 0 59929  22542.000000  0    6865552.067   -469598.588   -343763.842
10 0 59929  22662.000000  0    6748099.343   -639336.499  -1242196.272
10 0 59929  22782.000000  0    6509991.158   -794801.455  -2118788.950
10 0 59929  22902.000000  0    6155769.055   -931218.540  -2958160.020
10 0 59929  23022.000000  0    5692085.105  -1044249.505  -3745612.657
10 0 59929  23142.000000  0    5127565.050  -1130103.285  -4467393.816
10 0 59929  23262.000000  0    4472635.390  -1185632.771  -5110931.649
10 0 59929  23382.000000  0    3739320.015  -1208416.726  -5665048.567
10 0 59929  23502.000000  0    2941009.949  -1196825.491  -6120146.646
10 0 59929  23622.000000  0    2092212.830  -1150068.093  -6468362.663
10 0 59929  23742.000000  0    1208287.318  -1068219.956  -6703692.879
10 0 59929  23862.000000  0     305166.761   -952232.942  -6822086.255
10 0 59929  23982.000000  0    -600923.696   -803926.069  -6821506.673
10 0 59929  24102.000000  0   -1493751.755   -625957.526  -6701963.865
10 0 59929  24222.000000  0   -2357362.491   -421778.010  -6465513.421
10 0 59929  24342.000000  0   -3176356.925   -195566.356  -6116223.956
10 0 59929  24462.000000  0   -3936160.973     47851.621  -5660115.303
10 0 59929  24582.000000  0   -4623284.819    303100.463  -5105065.713
10 0 59929  24702.000000  0   -5225564.855    564366.325  -4460686.879
10 0 59929  24822.000000  0   -5732386.555    825521.296  -3738169.813
10 0 59929  24942.000000  0   -6134882.283   1080258.971  -2950099.521
10 0 59929  25062.000000  0   -6426098.701   1322237.512  -2110241.838
10 0 59929  25182.000000  0   -6601129.606   1545226.750  -1233305.498
10 0 59929  25302.000000  0   -6657211.255   1743257.173   -334682.869
10 0 59929  25422.000000  0   -6593774.484   1910764.940    569826.743
10 0 59929  25542.000000  0   -6412452.353   2042730.362   1464302.040
10 0 59929  25662.000000  0   -6117044.418   2134806.929   2332988.615
10 0 59929  25782.000000  0   -5713436.744   2183436.629   3160585.603
10 0 59929  25902.000000  0   -5209479.942   2185947.770   3932523.188
10 0 59929  26022.000000  0   -4614828.235   2140633.299   4635224.030
10 0 59929  26142.000000  0   -3940745.540   2046808.416   5256343.197
10 0 59929  26262.000000  0   -3199884.010   1904846.333   5784983.617
10 0 59929  26382.000000  0   -2406038.935   1716191.859   6211884.926
10 0 59929  26502.000000  0   -1573884.223   1483351.470   6529580.675
10 0 59929  26622.000000  0    -718696.218   1209860.455   6732522.015
10 0 59929  26742.000000  0     143928.072    900228.794   6817167.491
10 0 59929  26862.000000  0     998354.582    559866.194   6782040.708
10 0 59929  26982.000000  0    1829194.263    194987.800   6627754.290
10 0 59929  27102.000000  0    2621578.911   -187498.435   6357000.386
10 0 59929  27222.000000  0    3361427.529   -580121.568   5974507.942
10 0 59929  27342.000000  0    4035699.182   -974991.844   5486964.998
10 0 59929  27462.000000  0    4632626.969  -1363957.822   4902907.499
10 0 59929  27582.000000  0    5141929.346  -1738773.130   4232575.998
10 0 59929  27702.000000  0    5554995.987  -2091269.144   3487740.940
10 0 59929  27822.000000  0    5865042.543  -2413531.362   2681497.562
10 0 59929  27942.000000  0    6067229.546  -2698074.555   1828034.495
10 0 59929  28062.000000  0    6158744.084  -2938011.893    942381.071
10 0 59929  28182.000000  0    6138841.844  -3127215.011     40135.824
10 0 59929  28302.000000  0    6008846.175  -3260459.609   -862816.373
10 0 59929  28422.000000  0    5772105.948  -3333553.417  -1750593.905
10 0 59929  28542.000000  0    5433910.721  -3343442.118  -2607605.865
10 0 59929  28662.000000  0    5001369.529  -3288292.132  -3418831.418
10 0 59929  28782.000000  0    4483254.642  -3167547.964  -4170086.082
10 0 59929  28902.000000  0    3889815.435  -2981963.650  -4848269.229
10 0 59929  29022.000000  0    3232566.380  -2733606.455  -5441588.137
10 0 59929  29142.000000  0    2524056.757  -2425834.356  -5939753.733
10 0 59929  29262.000000  0    1777628.307  -2063249.877  -6334148.694
10 0 59929  29382.000000  0    1007162.641  -1651629.051  -6617967.335
10 0 59929  29502.000000  0     226823.578  -1197826.857  -6786321.996
10 0 59929  29622.000000  0    -549199.274   -709663.250  -6836317.663
10 0 59929  29742.000000  0   -1306942.471   -195790.662  -6767095.700
10 0 59929  29862.000000  0   -2032914.380    334455.861  -6579846.800
10 0 59929  29982.000000  0   -2714329.728    871223.803  -6277791.912
10 0 59929  30102.000000  0   -3339330.013   1404321.248  -5866133.085
10 0 59929  30222.000000  0   -3897188.557   1923405.720  -5351974.253
10 0 59929  30342.000000  0   -4378497.791   2418181.652  -4744210.533
10 0 59929  30462.000000  0   -4775333.410   2878603.564  -4053384.806
10 0 59929  30582.000000  0   -5081391.658   3295079.111  -3291514.425
10 0 59929  30702.000000  0   -5292098.542   3658669.631  -2471890.771
10 0 59929  30822.000000  0   -5404686.437   3961283.632  -1608851.395
10 0 59929  30942.000000  0   -5418236.473   4195857.216   -717529.754
10 0 59929  31062.000000  0   -5333684.468   4356517.266    186413.754
10 0 59929  31182.000000  0   -5153789.531   4438723.482   1087074.093
10 0 59929  31302.000000  0   -4883064.211   4439383.048   1968591.127
10 0 59929  31422.000000  0   -4527669.045   4356935.949   2815437.904
10 0 59929  31542.000000  0   -4095274.182   4191409.996   3612701.932
10 0 59929  31662.000000  0   -3594891.978   3944442.770   4346353.886
10 0 59929  31782.000000  0   -3036685.701   3619270.518   5003497.663
10 0 59929  31902.000000  0   -2431758.201   3220684.609   5572597.820
10 0 59929  32022.000000  0   -1791925.913   2754957.117   6043679.642
10 0 59929  32142.000000  0   -1129483.368   2229737.294   6408499.175
10 0 59929  32262.000000  0    -456964.211   1653921.052   6660679.813
10 0 59929  32382.000000  0     213095.331   1037497.833   6795817.655
10 0 59929  32502.000000  0     868390.071    391375.805   6811553.711
10 0 59929  32622.000000  0    1497070.729   -272810.675   6707612.067
10 0 59929  32742.000000  0    2087957.203   -942909.772   6485805.238
10 0 59929  32862.000000  0    2630737.094  -1606473.858   6150004.826
10 0 59929  32982.000000  0    3116147.373  -2250990.190   5706079.256
10 0 59929  33102.000000  0    3536135.515  -2864117.879   5161796.554
10 0 59929  33222.000000  0    3883996.964  -3433926.089   4526694.622
10 0 59929  33342.000000  0    4154486.845  -3949129.798   3811919.178
10 0 59929  33462.000000  0    4343903.157  -4399318.051   3030031.190
10 0 59929  33582.000000  0    4450139.633  -4775169.526   2194786.662
10 0 59929  33702.000000  0    4472706.559  -5068649.564   1320891.540
10 0 59929  33822.000000  0    4412718.014  -5273183.908    423737.140
10 0 59929  33942.000000  0    4272845.752  -5383804.072   -480878.246
10 0 59929  34062.000000  0    4057242.945  -5397262.079  -1377035.528
10 0 59929  34182.000000  0    3771436.749  -5312110.305  -2248984.542
10 0 59929  34302.000000  0    3422193.904  -5128744.072  -3081427.682
10 0 59929  34422.000000  0    3017363.498  -4849406.932  -3859793.286
10 0 59929  34542.000000  0    2565700.104  -4478159.412  -4570491.796
10 0 59929  34662.000000  0    2076672.641  -4020812.085  -5201150.537
10 0 59929  34782.000000  0    1560264.843  -3484824.715  -5740821.625
10 0 59929  34902.000000  0    1026771.911  -2879177.210  -6180161.827
10 0 59929  35022.000000  0     486596.287  -2214214.153  -6511583.994
10 0 59929  35142.000000  0     -49953.088  -1501464.612  -6729377.331
10 0 59929  35262.000000  0    -572853.291   -753441.586  -6829795.508
10 0 59929  35382.000000  0   -1072549.323     16575.070  -6811113.684
10 0 59929  35502.000000  0   -1540124.583    794769.038  -6673654.110
10 0 59929  35622.000000  0   -1967456.291   1567028.968  -6419780.957
10 0 59929  35742.000000  0   -2347353.364   2319197.972  -6053863.975
10 0 59929  35862.000000  0   -2673676.891   3037327.898  -5582212.436
10 0 59929  35982.000000  0   -2941440.141   3707935.949  -5012977.210
10 0 59929  36102.000000  0   -3146887.571   4318258.994  -4356021.829
10 0 59929  36222.000000  0   -3287550.113   4856500.603  -3622761.153
10 0 59929  36342.000000  0   -3362274.173   5312064.035  -2825970.621
10 0 59929  36462.000000  0   -3371225.351   5675767.755  -1979570.807
10 0 59929  36582.000000  0   -3315866.345   5940039.931  -1098386.889
99
